SPAWAR-CAL-O            
1 43766U 18099J   26068.73975788  .00021069  00000+0  69663-3 0  9999
2 43766  97.4452 132.0993 0007239 285.0670  74.9770 15.31356755398280
STARLINK-31099          
1 58781U 24011S   26068.13857074  .00000664  00000+0  34554-4 0  9994
2 58781  53.1619  16.3855 0000956 100.9975 259.1133 15.30196831120188
